{
  "norad_id": 66208,
  "name": "STARLINK-35751",
  "history": [
    {
      "epoch": "2026-03-28T20:08:01.410144Z",
      "apogee_km": 477.10339210574057,
      "perigee_km": 473.1935927323166,
      "latitude_deg": -2.0203793125486083e-05,
      "longitude_deg": 12.547510737687125,
      "height_km": 475.17536115446075,
      "semi_major_axis_km": 6853.285492419029,
      "eccentricity": 0.00028525,
      "inclination_deg": 53.1579,
      "raan_deg": 140.807,
      "arg_perigee_deg": 63.6027,
      "mean_anomaly_deg": 296.5266,
      "mean_motion_rev_day": 15.30222298
    },
    {
      "epoch": "2026-03-29T03:58:17.775264Z",
      "apogee_km": 476.9744481348007,
      "perigee_km": 473.62996980082517,
      "latitude_deg": 9.266897541152966e-06,
      "longitude_deg": -106.85974554312658,
      "height_km": 475.87433395683433,
      "semi_major_axis_km": 6853.439208967813,
      "eccentricity": 0.000244,
      "inclination_deg": 53.1571,
      "raan_deg": 139.2898,
      "arg_perigee_deg": 78.828,
      "mean_anomaly_deg": 281.2995,
      "mean_motion_rev_day": 15.30170816
    },
    {
      "epoch": "2026-03-30T03:29:07.335456Z",
      "apogee_km": 476.7568168991311,
      "perigee_km": 473.69391219116915,
      "latitude_deg": -2.9935780353147478e-06,
      "longitude_deg": -105.08073097203712,
      "height_km": 476.00860138231747,
      "semi_major_axis_km": 6853.36236454515,
      "eccentricity": 0.00022346,
      "inclination_deg": 53.1589,
      "raan_deg": 134.741,
      "arg_perigee_deg": 85.7556,
      "mean_anomaly_deg": 274.37,
      "mean_motion_rev_day": 15.30196552
    },
    {
      "epoch": "2026-03-30T12:53:26.364480Z",
      "apogee_km": 476.60289140763143,
      "perigee_km": 473.7717831239079,
      "latitude_deg": 4.45843520363073e-05,
      "longitude_deg": 111.63205596728447,
      "height_km": 475.8641117566551,
      "semi_major_axis_km": 6853.32433726577,
      "eccentricity": 0.00020655,
      "inclination_deg": 53.1575,
      "raan_deg": 132.9193,
      "arg_perigee_deg": 81.0617,
      "mean_anomaly_deg": 279.0618,
      "mean_motion_rev_day": 15.30209288
    },
    {
      "epoch": "2026-03-31T12:24:12.897216Z",
      "apogee_km": 476.43787064662865,
      "perigee_km": 473.81170073035355,
      "latitude_deg": 6.40510445518288e-05,
      "longitude_deg": 113.42304378370314,
      "height_km": 475.53094849036825,
      "semi_major_axis_km": 6853.261785688491,
      "eccentricity": 0.0001916,
      "inclination_deg": 53.1578,
      "raan_deg": 128.3698,
      "arg_perigee_deg": 68.0431,
      "mean_anomaly_deg": 292.0774,
      "mean_motion_rev_day": 15.30230238
    },
    {
      "epoch": "2026-04-01T11:55:00.636096Z",
      "apogee_km": 476.54889998396084,
      "perigee_km": 473.86650086821464,
      "latitude_deg": 5.908214679655671e-05,
      "longitude_deg": 115.20637406364486,
      "height_km": 475.8646304738445,
      "semi_major_axis_km": 6853.344700426088,
      "eccentricity": 0.0001957,
      "inclination_deg": 53.158,
      "raan_deg": 123.8177,
      "arg_perigee_deg": 79.6918,
      "mean_anomaly_deg": 280.4304,
      "mean_motion_rev_day": 15.30202468
    },
    {
      "epoch": "2026-04-02T08:17:41.977536Z",
      "apogee_km": 476.51877024658825,
      "perigee_km": 473.83624588184193,
      "latitude_deg": -5.485943252658668e-05,
      "longitude_deg": 164.75373312970353,
      "height_km": 475.8854872361168,
      "semi_major_axis_km": 6853.314508064214,
      "eccentricity": 0.00019571,
      "inclination_deg": 53.1582,
      "raan_deg": 119.8743,
      "arg_perigee_deg": 81.9005,
      "mean_anomaly_deg": 278.2217,
      "mean_motion_rev_day": 15.3021258
    },
    {
      "epoch": "2026-04-03T10:56:36.225312Z",
      "apogee_km": 476.4848588078876,
      "perigee_km": 474.03106927496265,
      "latitude_deg": 1.3988104979116927e-05,
      "longitude_deg": 118.77324146134276,
      "height_km": 476.16933714128834,
      "semi_major_axis_km": 6853.394964041425,
      "eccentricity": 0.00017902,
      "inclination_deg": 53.1585,
      "raan_deg": 114.7142,
      "arg_perigee_deg": 90.6631,
      "mean_anomaly_deg": 269.4575,
      "mean_motion_rev_day": 15.30185634
    },
    {
      "epoch": "2026-04-04T10:27:24.537024Z",
      "apogee_km": 476.4187588609502,
      "perigee_km": 473.94909613151685,
      "latitude_deg": -2.7949194717428074e-05,
      "longitude_deg": 120.55704911678696,
      "height_km": 475.8793686584299,
      "semi_major_axis_km": 6853.320927496233,
      "eccentricity": 0.00018018,
      "inclination_deg": 53.1585,
      "raan_deg": 110.165,
      "arg_perigee_deg": 80.5957,
      "mean_anomaly_deg": 279.5247,
      "mean_motion_rev_day": 15.3021043
    },
    {
      "epoch": "2026-04-05T08:24:09.443520Z",
      "apogee_km": 476.320406663629,
      "perigee_km": 474.1356909533697,
      "latitude_deg": -2.3158567857132682e-05,
      "longitude_deg": 146.21865884017552,
      "height_km": 476.15498859940726,
      "semi_major_axis_km": 6853.365048808499,
      "eccentricity": 0.00015939,
      "inclination_deg": 53.1585,
      "raan_deg": 105.915,
      "arg_perigee_deg": 91.5462,
      "mean_anomaly_deg": 268.5721,
      "mean_motion_rev_day": 15.30195653
    },
    {
      "epoch": "2026-04-05T17:48:28.539072Z",
      "apogee_km": 476.3439355437131,
      "perigee_km": 474.06177337217923,
      "latitude_deg": -4.971784260624305e-05,
      "longitude_deg": 2.9332114268820093,
      "height_km": 476.6656353904671,
      "semi_major_axis_km": 6853.339854457946,
      "eccentricity": 0.0001665,
      "inclination_deg": 53.159,
      "raan_deg": 104.0954,
      "arg_perigee_deg": 119.6827,
      "mean_anomaly_deg": 240.4339,
      "mean_motion_rev_day": 15.30204091
    },
    {
      "epoch": "2026-04-06T06:20:52.082880Z",
      "apogee_km": 476.4888246777109,
      "perigee_km": 473.84249038953203,
      "latitude_deg": -4.0470325132702964e-05,
      "longitude_deg": 171.89502370210332,
      "height_km": 477.2821643667251,
      "semi_major_axis_km": 6853.302657533622,
      "eccentricity": 0.00019307,
      "inclination_deg": 53.1587,
      "raan_deg": 101.6703,
      "arg_perigee_deg": 156.9903,
      "mean_anomaly_deg": 203.1184,
      "mean_motion_rev_day": 15.30216549
    },
    {
      "epoch": "2026-04-07T05:51:42.861312Z",
      "apogee_km": 476.3677298293742,
      "perigee_km": 474.26783128461193,
      "latitude_deg": -2.1842061289487735e-05,
      "longitude_deg": 173.66536825770498,
      "height_km": 475.8065457834459,
      "semi_major_axis_km": 6853.454780556993,
      "eccentricity": 0.0001532,
      "inclination_deg": 53.1591,
      "raan_deg": 97.1179,
      "arg_perigee_deg": 67.073,
      "mean_anomaly_deg": 293.0432,
      "mean_motion_rev_day": 15.30165601
    },
    {
      "epoch": "2026-04-08T08:30:37.870272Z",
      "apogee_km": 476.31481106990486,
      "perigee_km": 474.0685640592692,
      "latitude_deg": 4.0568964177861387e-05,
      "longitude_deg": 127.68438777483152,
      "height_km": 475.74725176142096,
      "semi_major_axis_km": 6853.328687564587,
      "eccentricity": 0.00016388,
      "inclination_deg": 53.1593,
      "raan_deg": 91.9605,
      "arg_perigee_deg": 72.2696,
      "mean_anomaly_deg": 287.8484,
      "mean_motion_rev_day": 15.30207831
    },
    {
      "epoch": "2026-04-09T15:51:39.935232Z",
      "apogee_km": 476.37435926003036,
      "perigee_km": 474.12096638289404,
      "latitude_deg": -3.8067091578807336e-05,
      "longitude_deg": 10.068598962262431,
      "height_km": 475.6843025090059,
      "semi_major_axis_km": 6853.3846628214615,
      "eccentricity": 0.0001644,
      "inclination_deg": 53.1583,
      "raan_deg": 85.8909,
      "arg_perigee_deg": 65.851,
      "mean_anomaly_deg": 294.2662,
      "mean_motion_rev_day": 15.30189084
    },
    {
      "epoch": "2026-04-10T05:58:08.708160Z",
      "apogee_km": 476.17882507390823,
      "perigee_km": 474.1708047121447,
      "latitude_deg": -6.87503094070119e-06,
      "longitude_deg": 155.1404387600568,
      "height_km": 475.99705230674243,
      "semi_major_axis_km": 6853.311814893026,
      "eccentricity": 0.0001465,
      "inclination_deg": 53.1582,
      "raan_deg": 83.162,
      "arg_perigee_deg": 85.6938,
      "mean_anomaly_deg": 274.423,
      "mean_motion_rev_day": 15.30213482
    },
    {
      "epoch": "2026-04-11T14:53:15.883008Z",
      "apogee_km": 475.8469721588499,
      "perigee_km": 474.5941783940898,
      "latitude_deg": 4.4225548895436947e-05,
      "longitude_deg": 13.63595756277509,
      "height_km": 475.86614889303416,
      "semi_major_axis_km": 6853.357575276469,
      "eccentricity": 9.14e-05,
      "inclination_deg": 53.1578,
      "raan_deg": 76.7893,
      "arg_perigee_deg": 66.1935,
      "mean_anomaly_deg": 293.9162,
      "mean_motion_rev_day": 15.30198156
    },
    {
      "epoch": "2026-04-13T04:30:32.770656Z",
      "apogee_km": 476.5536071507295,
      "perigee_km": 473.82913499009464,
      "latitude_deg": -1.3605183627032024e-05,
      "longitude_deg": 160.49109402365553,
      "height_km": 476.1586534304978,
      "semi_major_axis_km": 6853.328371070412,
      "eccentricity": 0.00019877,
      "inclination_deg": 53.1568,
      "raan_deg": 69.5099,
      "arg_perigee_deg": 92.9692,
      "mean_anomaly_deg": 267.1536,
      "mean_motion_rev_day": 15.30207937
    },
    {
      "epoch": "2026-04-14T07:09:27.173088Z",
      "apogee_km": 476.0875448111965,
      "perigee_km": 474.3059521699388,
      "latitude_deg": -4.7109207193071e-05,
      "longitude_deg": 114.5121804367113,
      "height_km": 476.1219840314644,
      "semi_major_axis_km": 6853.333748490567,
      "eccentricity": 0.00012998,
      "inclination_deg": 53.1584,
      "raan_deg": 64.3521,
      "arg_perigee_deg": 91.7603,
      "mean_anomaly_deg": 268.3546,
      "mean_motion_rev_day": 15.30206136
    }
  ]
}